NORAD_CAT_ID,OBJECT_NAME,OBJECT_TYPE,EPOCH,MEAN_MOTION,ECCENTRICITY,INCLINATION,RA_OF_ASC_NODE,ARG_OF_PERICENTER,MEAN_ANOMALY,BSTAR,MEAN_MOTION_DOT,MEAN_MOTION_DDOT,TLE_LINE0,TLE_LINE1,TLE_LINE2,SEMIMAJOR_AXIS,PERIOD,APOGEE,PERIGEE,DECAYED
49458.0,STARLINK-3156,PAYLOAD,2022-03-08 14:00:01,15.0880994,0.0001740999999999,53.2173,302.7523,49.5531,143.2316,0.0024967,0.00039638,0.0,0 STARLINK-3156,1 49458U 21104BC  22067.58334491  .00039638  00000-0  24967-2 0  9991,2 49458  53.2173 302.7523 0001741  49.5531 143.2316 15.08809940  3563,6917.972,95.439,541.0419999999998,538.633,0.0
49458.0,STARLINK-3156,PAYLOAD,2022-03-08 20:00:01,15.08844886,0.0001851,53.2173,301.6313,47.395,64.067,-0.0015416,-0.00024743,0.0,0 STARLINK-3156,1 49458U 21104BC  22067.83334491 -.00024743  00000-0 -15416-2 0  9991,2 49458  53.2173 301.6313 0001851  47.3950  64.0670 15.08844886 19176,6917.865,95.437,541.011,538.45,0.0
49458.0,STARLINK-3156,PAYLOAD,2022-03-08 22:00:00,15.08834483,0.0001912,53.2172,301.2576,46.0501,158.3128,-0.00044682,-7.391e-05,0.0,0 STARLINK-3156,1 49458U 21104BC  22067.91667824 -.00007391  00000-0 -44682-3 0  9997,2 49458  53.2172 301.2576 0001912  46.0501 158.3128 15.08834483  3594,6917.897,95.438,541.085,538.44,0.0
49458.0,STARLINK-3156,PAYLOAD,2022-03-09 12:00:00,15.08818283,0.0001753,53.2167,298.6374,50.0576,84.5882,0.0028262,0.00044952,0.0,0 STARLINK-3156,1 49458U 21104BC  22068.50001157  .00044952  00000-0  28262-2 0  9991,2 49458  53.2167 298.6374 0001753  50.0576  84.5882 15.08818283 19272,6917.946999999999,95.439,541.024,538.599,0.0
49458.0,STARLINK-3156,PAYLOAD,2022-03-09 14:00:01,15.08828834,0.0001767,53.2168,298.2632,52.0867,175.4522,0.002216,0.00035145,0.0,0 STARLINK-3156,1 49458U 21104BC  22068.58334491  .00035145  00000-0  22160-2 0  9994,2 49458  53.2168 298.2632 0001767  52.0867 175.4522 15.08828834  3611,6917.915,95.438,541.002,538.557,0.0
49458.0,STARLINK-3156,PAYLOAD,2022-03-09 22:00:01,15.08845997,0.0001943,53.2167,296.7685,47.7292,191.47,-0.00025432,-4.334e-05,0.0,0 STARLINK-3156,1 49458U 21104BC  22068.91668981 -.00004334  00000-0 -25432-3 0  9999,2 49458  53.2167 296.7685 0001943  47.7292 191.4700 15.08845997  3592,6917.861999999999,95.437,541.071,538.383,0.0
49458.0,STARLINK-3156,PAYLOAD,2022-03-10 04:00:01,15.08858113,0.0001933,53.2163,295.6462,45.0459,112.8489,-0.0020734,-0.00033152,0.0,0 STARLINK-3156,1 49458U 21104BC  22069.16668981 -.00033152  00000-0 -20734-2 0  9996,2 49458  53.2163 295.6462 0001933  45.0459 112.8489 15.08858113 19372,6917.825,95.436,541.0269999999998,538.3530000000002,0.0
49458.0,STARLINK-3156,PAYLOAD,2022-03-10 14:00:01,15.08816675,0.0001738,53.2164,293.7741,51.73,210.6015,0.0020208,0.00031999,0.0,0 STARLINK-3156,1 49458U 21104BC  22069.58334491  .00031999  00000-0  20208-2 0  9999,2 49458  53.2164 293.7741 0001738  51.7300 210.6015 15.08816675  3589,6917.9519999999975,95.439,541.019,538.614,0.0
49458.0,STARLINK-3156,PAYLOAD,2022-03-10 20:00:01,15.08840459,0.0001869,53.2164,292.6533,48.1518,132.8635,-0.0012606,-0.00020295,0.0,0 STARLINK-3156,1 49458U 21104BC  22069.83334491 -.00020295  00000-0 -12606-2 0  9999,2 49458  53.2164 292.6533 0001869  48.1518 132.8635 15.08840459 19477,6917.879,95.438,541.0369999999998,538.451,0.0
49458.0,STARLINK-3156,PAYLOAD,2022-03-10 22:00:01,15.08829424,0.0001935,53.2164,292.2795,46.9578,227.0204,0.00010837,1.437e-05,0.0,0 STARLINK-3156,1 49458U 21104BC  22069.91668981  .00001437  00000-0  10837-3 0  9992,2 49458  53.2164 292.2795 0001935  46.9578 227.0204 15.08829424  3638,6917.913000000001,95.438,541.116,538.439,0.0
49458.0,STARLINK-3156,PAYLOAD,2022-03-11 12:00:00,15.08826759,0.0001798,53.2161,289.6591,50.6874,153.5223,0.0028086,0.00044679,0.0,0 STARLINK-3156,1 49458U 21104BC  22070.50001157  .00044679  00000-0  28086-2 0  9994,2 49458  53.2161 289.6591 0001798  50.6874 153.5223 15.08826759 19579,6917.920999999999,95.438,541.03,538.5419999999998,0.0
49458.0,STARLINK-3156,PAYLOAD,2022-03-11 14:00:01,15.08839196,0.000182,53.2163,289.285,52.3953,244.7089,0.0021083,0.00033425,0.0,0 STARLINK-3156,1 49458U 21104BC  22070.58334491  .00033425  00000-0  21083-2 0  9999,2 49458  53.2163 289.2850 0001820  52.3953 244.7089 15.08839196  3573,6917.8830000000025,95.438,541.007,538.489,0.0
49458.0,STARLINK-3156,PAYLOAD,2022-03-11 22:00:00,15.08855804,0.0002003,53.2164,287.7905,47.1439,261.5733,-2.3885e-05,-6.69e-06,0.0,0 STARLINK-3156,1 49458U 21104BC  22070.91667824 -.00000669  00000-0 -23885-4 0  9995,2 49458  53.2164 287.7905 0002003  47.1439 261.5733 15.08855804  3581,6917.831999999999,95.437,541.0830000000002,538.311,0.0
49458.0,STARLINK-3156,PAYLOAD,2022-03-12 04:00:00,15.08877301,0.0001947,53.2162,286.6679,44.7013,182.7218,-0.0033484,-0.0005323999999999,0.0,0 STARLINK-3156,1 49458U 21104BC  22071.16667824 -.00053240  00000-0 -33484-2 0  9990,2 49458  53.2162 286.6679 0001947  44.7013 182.7218 15.08877301 19677,6917.766,95.435,540.9780000000002,538.284,0.0
49458.0,STARLINK-3156,PAYLOAD,2022-03-12 14:00:01,15.08834497,0.0001786999999999,53.2165,284.796,49.6262,282.2616,0.0021265,0.00033713,0.0,0 STARLINK-3156,1 49458U 21104BC  22071.58334491  .00033713  00000-0  21265-2 0  9992,2 49458  53.2165 284.7960 0001787  49.6262 282.2616 15.08834497  3595,6917.897,95.438,540.998,538.526,0.0
49458.0,STARLINK-3156,PAYLOAD,2022-03-12 20:00:01,15.08857887,0.0001934,53.2164,283.6753,45.2874,205.2969,-0.0019122,-0.00030607,0.0,0 STARLINK-3156,1 49458U 21104BC  22071.83334491 -.00030607  00000-0 -19122-2 0  9990,2 49458  53.2164 283.6753 0001934  45.2874 205.2969 15.08857887 19778,6917.826,95.436,541.029,538.3530000000002,0.0
49458.0,STARLINK-3156,PAYLOAD,2022-03-12 22:00:00,15.088525099999998,0.0001979,53.2166,283.3016,43.9774,299.5096,-0.0016422,-0.00026338,0.0,0 STARLINK-3156,1 49458U 21104BC  22071.91667824 -.00026338  00000-0 -16422-2 0  9994,2 49458  53.2166 283.3016 0001979  43.9774 299.5096 15.08852510  3590,6917.842,95.437,541.076,538.3380000000002,0.0
49458.0,STARLINK-3156,PAYLOAD,2022-03-13 12:00:00,15.08811182,0.0001778,53.2165,280.6809,47.2504,226.5254,0.0027669,0.00043988,0.0,0 STARLINK-3156,1 49458U 21104BC  22072.50001157  .00043988  00000-0  27669-2 0  9994,2 49458  53.2165 280.6809 0001778  47.2504 226.5254 15.08811182 19878,6917.968000000003,95.439,541.063,538.6030000000002,0.0
49458.0,STARLINK-3156,PAYLOAD,2022-03-13 14:00:01,15.08828342,0.0001794,53.2167,280.3071,48.2321,318.4318,0.0014436,0.00022754,0.0,0 STARLINK-3156,1 49458U 21104BC  22072.58334491  .00022754  00000-0  14436-2 0  9998,2 49458  53.2167 280.3071 0001794  48.2321 318.4318 15.08828342  3617,6917.916,95.438,541.0219999999998,538.54,0.0
49458.0,STARLINK-3156,PAYLOAD,2022-03-13 22:00:01,15.08827363,0.0002004,53.2168,278.8125,43.3389,334.9793,0.00094246,0.00014738,0.0,0 STARLINK-3156,1 49458U 21104BC  22072.91668981  .00014738  00000-0  94246-3 0  9990,2 49458  53.2168 278.8125 0002004  43.3389 334.9793 15.08827363  3606,6917.919,95.438,541.17,538.398,0.0
49458.0,STARLINK-3156,PAYLOAD,2022-03-14 04:00:00,15.08874409,0.0001907,53.2164,277.6898,41.3045,255.6408,-0.0036409,-0.00057824,0.0,0 STARLINK-3156,1 49458U 21104BC  22073.16667824 -.00057824  00000-0 -36409-2 0  9994,2 49458  53.2164 277.6898 0001907  41.3045 255.6408 15.08874409 19976,6917.775,95.435,540.9590000000002,538.321,0.0
49458.0,STARLINK-3156,PAYLOAD,2022-03-14 12:00:00,15.08819562,0.0001730999999999,53.2167,276.1919,45.5873,262.9814,0.0028877,0.00045944,0.0,0 STARLINK-3156,1 49458U 21104BC  22073.50001157  .00045944  00000-0  28877-2 0  9991,2 49458  53.2167 276.1919 0001731  45.5873 262.9814 15.08819562 20026,6917.943,95.439,541.005,538.61,0.0
49458.0,STARLINK-3156,PAYLOAD,2022-03-14 14:00:01,15.08837305,0.0001743,53.2168,275.8181,46.1256,355.3969,0.0014755,0.00023271,0.0,0 STARLINK-3156,1 49458U 21104BC  22073.58335648  .00023271  00000-0  14755-2 0  9993,2 49458  53.2168 275.8181 0001743  46.1256 355.3969 15.08837305  3595,6917.889,95.438,540.9590000000002,538.548,0.0
49458.0,STARLINK-3156,PAYLOAD,2022-03-14 20:00:01,15.08847952,0.0001926,53.2166,274.6973,42.0084,278.152,1.3895e-05,-6.7e-07,0.0,0 STARLINK-3156,1 49458U 21104BC  22073.83334491 -.00000067  00000-0  13895-4 0  9991,2 49458  53.2166 274.6973 0001926  42.0084 278.1520 15.08847952  3589,6917.856,95.437,541.053,538.389,0.0
49458.0,STARLINK-3156,PAYLOAD,2022-03-14 22:00:00,15.08831476,0.0001969,53.2167,274.3235,41.8316,11.2229,0.0012656,0.00019907,0.0,0 STARLINK-3156,1 49458U 21104BC  22073.91667824  .00019907  00000-0  12656-2 0  9993,2 49458  53.2167 274.3235 0001969  41.8316  11.2229 15.08831476 20091,6917.906,95.438,541.134,538.409,0.0
49458.0,STARLINK-3156,PAYLOAD,2022-03-15 02:00:01,15.08856477,0.0001956,53.2164,273.5751,40.9009,197.9444,-0.0019331,-0.00030936,0.0,0 STARLINK-3156,1 49458U 21104BC  22074.08334491 -.00030936  00000-0 -19331-2 0  9997,2 49458  53.2164 273.5751 0001956  40.9009 197.9444 15.08856477 20119,6917.83,95.437,541.048,538.342,0.0
49458.0,STARLINK-3156,PAYLOAD,2022-03-15 22:00:00,15.08784101,0.0001939,53.2164,269.8345,42.5251,45.2587,0.0015017,0.00023656,0.0,0 STARLINK-3156,1 49458U 21104BC  22074.91667824  .00023656  00000-0  15017-2 0  9994,2 49458  53.2164 269.8345 0001939  42.5251  45.2587 15.08784101  3594,6918.051,95.441,541.258,538.575,0.0
49458.0,STARLINK-3156,PAYLOAD,2022-03-16 04:00:00,15.088091,0.0001853,53.2159,268.7113,42.3184,324.1184,0.00014946,2.089e-05,0.0,0 STARLINK-3156,1 49458U 21104BC  22075.16667824  .00002089  00000-0  14946-3 0  9990,2 49458  53.2159 268.7113 0001853  42.3184 324.1184 15.08809100 20270,6917.975,95.44,541.122,538.558,0.0
49458.0,STARLINK-3156,PAYLOAD,2022-03-16 14:00:01,15.08844575,0.0001683,53.2161,266.8402,46.4652,64.4169,-0.00016693,-2.944e-05,0.0,0 STARLINK-3156,1 49458U 21104BC  22075.58334491 -.00002944  00000-0 -16693-3 0  9990,2 49458  53.2161 266.8402 0001683  46.4652  64.4169 15.08844575  3597,6917.866,95.437,540.896,538.567,0.0
